{"type": "FeatureCollection", "features": [ {"type": "Feature", "properties": {"norad_id": 66574, "name": "STARLINK-35812", "group": "last-30-days", "lat": -6.626222889845545, "lon": 42.47594267174817, "alt_km": 434.39668764818543, "timestamp": "2025-12-24T22:42:20.743593+00:00", "meta": {"OBJECT_NAME": "STARLINK-35812", "OBJECT_ID": "2025-268T", "EPOCH": "2025-12-24T08:00:03.000384", "MEAN_MOTION": 15.46733449, "ECCENTRICITY": 9.631e-05, "INCLINATION": 43.0002, "RA_OF_ASC_NODE": 53.1935, "ARG_OF_PERICENTER": 281.4547, "MEAN_ANOMALY": 256.1612, "EPHEMERIS_TYPE": 0, "CLASSIFICATION_TYPE": "U", "NORAD_CAT_ID": 66574, "ELEMENT_SET_NO": 999, "REV_AT_EPOCH": 610, "BSTAR": -0.045486617, "MEAN_MOTION_DOT": -0.02070941, "MEAN_MOTION_DDOT": 0}, "tle": {"line1": "1 66574U 25268T   25358.33336806 -.02070941  00000+0 -45487-1 0  9999", "line2": "2 66574  43.0002  53.1935 0000963 281.4547 256.1612 15.46733449  6100"}}, "geometry": {"type": "Point", "coordinates": [42.47594267174817, -6.626222889845545]}}, {"type": "Feature", "properties": {"norad_id": 66575, "name": "STARLINK-35810", "group": "last-30-days", "lat": 0.16017914773095482, "lon": 49.78489455644432, "alt_km": 431.31958264520927, "timestamp": "2025-12-24T22:42:20.743604+00:00", "meta": {"OBJECT_NAME": "STARLINK-35810", "OBJECT_ID": "2025-268U", "EPOCH": "2025-12-24T08:00:03.000384", "MEAN_MOTION": 15.47573559, "ECCENTRICITY": 9.754e-05, "INCLINATION": 43.0001, "RA_OF_ASC_NODE": 53.1738, "ARG_OF_PERICENTER": 280.0468, "MEAN_ANOMALY": 265.6937, "EPHEMERIS_TYPE": 0, "CLASSIFICATION_TYPE": "U", "NORAD_CAT_ID": 66575, "ELEMENT_SET_NO": 999, "REV_AT_EPOCH": 609, "BSTAR": -0.044256209, "MEAN_MOTION_DOT": -0.02074699, "MEAN_MOTION_DDOT": 0}, "tle": {"line1": "1 66575U 25268U   25358.33336806 -.02074699  00000+0 -44256-1 0  9997", "line2": "2 66575  43.0001  53.1738 0000975 280.0468 265.6937 15.47573559  6099"}}, "geometry": {"type": "Point", "coordinates": [49.78489455644432, 0.16017914773095482]}}, {"type": "Feature", "properties": {"norad_id": 66576, "name": "STARLINK-35814", "group": "last-30-days", "lat": 6.566545861363551, "lon": 56.68557465095251, "alt_km": 428.1657348985609, "timestamp": "2025-12-24T22:42:20.743614+00:00", "meta": {"OBJECT_NAME": "STARLINK-35814", "OBJECT_ID": "2025-268V", "EPOCH": "2025-12-24T08:00:03.000384", "MEAN_MOTION": 15.48407546, "ECCENTRICITY": 9.98e-05, "INCLINATION": 43.0002, "RA_OF_ASC_NODE": 53.155, "ARG_OF_PERICENTER": 280.4172, "MEAN_ANOMALY": 272.8901, "EPHEMERIS_TYPE": 0, "CLASSIFICATION_TYPE": "U", "NORAD_CAT_ID": 66576, "ELEMENT_SET_NO": 999, "REV_AT_EPOCH": 610, "BSTAR": -0.042890018, "MEAN_MOTION_DOT": -0.02071149, "MEAN_MOTION_DDOT": 0}, "tle": {"line1": "1 66576U 25268V   25358.33336806 -.02071149  00000+0 -42890-1 0  9997", "line2": "2 66576  43.0002  53.1550 0000998 280.4172 272.8901 15.48407546  6100"}}, "geometry": {"type": "Point", "coordinates": [56.68557465095251, 6.566545861363551]}}, {"type": "Feature", "properties": {"norad_id": 66577, "name": "STARLINK-35815", "group": "last-30-days", "lat": 15.61067666966624, "lon": 67.00414614132828, "alt_km": 422.85599740900034, "timestamp": "2025-12-24T22:42:20.743624+00:00", "meta": {"OBJECT_NAME": "STARLINK-35815", "OBJECT_ID": "2025-268W", "EPOCH": "2025-12-24T08:00:03.000384", "MEAN_MOTION": 15.49856865, "ECCENTRICITY": 8.815e-05, "INCLINATION": 43.0004, "RA_OF_ASC_NODE": 53.1295, "ARG_OF_PERICENTER": 279.499, "MEAN_ANOMALY": 284.1855, "EPHEMERIS_TYPE": 0, "CLASSIFICATION_TYPE": "U", "NORAD_CAT_ID": 66577, "ELEMENT_SET_NO": 999, "REV_AT_EPOCH": 609, "BSTAR": -0.040715202, "MEAN_MOTION_DOT": -0.02070194, "MEAN_MOTION_DDOT": 0}, "tle": {"line1": "1 66577U 25268W   25358.33336806 -.02070194  00000+0 -40715-1 0  9991", "line2": "2 66577  43.0004  53.1295 0000881 279.4990 284.1855 15.49856865  6091"}}, "geometry": {"type": "Point", "coordinates": [67.00414614132828, 15.61067666966624]}}, {"type": "Feature", "properties": {"norad_id": 66578, "name": "STARLINK-35743", "group": "last-30-days", "lat": 20.64269249852907, "lon": 73.38266248903791, "alt_km": 419.75749184357846, "timestamp": "2025-12-24T22:42:20.743635+00:00", "meta": {"OBJECT_NAME": "STARLINK-35743", "OBJECT_ID": "2025-268X", "EPOCH": "2025-12-24T08:00:03.000384", "MEAN_MOTION": 15.50695017, "ECCENTRICITY": 8.33e-05, "INCLINATION": 43.0002, "RA_OF_ASC_NODE": 53.1146, "ARG_OF_PERICENTER": 278.8848, "MEAN_ANOMALY": 290.8298, "EPHEMERIS_TYPE": 0, "CLASSIFICATION_TYPE": "U", "NORAD_CAT_ID": 66578, "ELEMENT_SET_NO": 999, "REV_AT_EPOCH": 610, "BSTAR": -0.039504452, "MEAN_MOTION_DOT": -0.0206994, "MEAN_MOTION_DDOT": 0}, "tle": {"line1": "1 66578U 25268X   25358.33336806 -.02069940  00000+0 -39504-1 0  9993", "line2": "2 66578  43.0002  53.1146 0000833 278.8848 290.8298 15.50695017  6106"}}, "geometry": {"type": "Point", "coordinates": [73.38266248903791, 20.64269249852907]}}, {"type": "Feature", "properties": {"norad_id": 66579, "name": "STARLINK-35868", "group": "last-30-days", "lat": 25.094083021909924, "lon": 79.68796001783892, "alt_km": 416.7171169996809, "timestamp": "2025-12-24T22:42:20.743645+00:00", "meta": {"OBJECT_NAME": "STARLINK-35868", "OBJECT_ID": "2025-268Y", "EPOCH": "2025-12-24T08:00:03.000384", "MEAN_MOTION": 15.51534666, "ECCENTRICITY": 8.447e-05, "INCLINATION": 43.0006, "RA_OF_ASC_NODE": 53.1014, "ARG_OF_PERICENTER": 279.1142, "MEAN_ANOMALY": 296.0694, "EPHEMERIS_TYPE": 0, "CLASSIFICATION_TYPE": "U", "NORAD_CAT_ID": 66579, "ELEMENT_SET_NO": 999, "REV_AT_EPOCH": 610, "BSTAR": -0.038368982, "MEAN_MOTION_DOT": -0.02072053, "MEAN_MOTION_DDOT": 0}, "tle": {"line1": "1 66579U 25268Y   25358.33336806 -.02072053  00000+0 -38369-1 0  9991", "line2": "2 66579  43.0006  53.1014 0000844 279.1142 296.0694 15.51534666  6109"}}, "geometry": {"type": "Point", "coordinates": [79.68796001783892, 25.094083021909924]}}, {"type": "Feature", "properties": {"norad_id": 66580, "name": "STARLINK-35872", "group": "last-30-days", "lat": 28.9657803934444, "lon": 85.94518664197155, "alt_km": 413.60745077946103, "timestamp": "2025-12-24T22:42:20.743655+00:00", "meta": {"OBJECT_NAME": "STARLINK-35872", "OBJECT_ID": "2025-268Z", "EPOCH": "2025-12-24T08:00:03.000384", "MEAN_MOTION": 15.52348756, "ECCENTRICITY": 7.68e-05, "INCLINATION": 43.0001, "RA_OF_ASC_NODE": 53.0899, "ARG_OF_PERICENTER": 278.0338, "MEAN_ANOMALY": 302.067, "EPHEMERIS_TYPE": 0, "CLASSIFICATION_TYPE": "U", "NORAD_CAT_ID": 66580, "ELEMENT_SET_NO": 999, "REV_AT_EPOCH": 610, "BSTAR": -0.036338983, "MEAN_MOTION_DOT": -0.02026722, "MEAN_MOTION_DDOT": 0}, "tle": {"line1": "1 66580U 25268Z   25358.33336806 -.02026722  00000+0 -36339-1 0  9990", "line2": "2 66580  43.0001  53.0899 0000768 278.0338 302.0670 15.52348756  6102"}}, "geometry": {"type": "Point", "coordinates": [85.94518664197155, 28.9657803934444]}}, {"type": "Feature", "properties": {"norad_id": 66581, "name": "STARLINK-35744", "group": "last-30-days", "lat": 32.21918521627528, "lon": 92.04031409994822, "alt_km": 410.93248596045123, "timestamp": "2025-12-24T22:42:20.743665+00:00", "meta": {"OBJECT_NAME": "STARLINK-35744", "OBJECT_ID": "2025-268AA", "EPOCH": "2025-12-24T08:00:03.000384", "MEAN_MOTION": 15.53211285, "ECCENTRICITY": 9.535e-05, "INCLINATION": 43.0004, "RA_OF_ASC_NODE": 53.0777, "ARG_OF_PERICENTER": 276.6648, "MEAN_ANOMALY": 307.7754, "EPHEMERIS_TYPE": 0, "CLASSIFICATION_TYPE": "U", "NORAD_CAT_ID": 66581, "ELEMENT_SET_NO": 999, "REV_AT_EPOCH": 610, "BSTAR": -0.036086702, "MEAN_MOTION_DOT": -0.02071685, "MEAN_MOTION_DDOT": 0}, "tle": {"line1": "1 66581U 25268AA  25358.33336806 -.02071685  00000+0 -36087-1 0  9999", "line2": "2 66581  43.0004  53.0777 0000953 276.6648 307.7754 15.53211285  6107"}}, "geometry": {"type": "Point", "coordinates": [92.04031409994822, 32.21918521627528]}}, {"type": "Feature", "properties": {"norad_id": 66582, "name": "STARLINK-35746", "group": "last-30-days", "lat": 38.98613885148018, "lon": 109.74344675118412, "alt_km": 393.98233261813857, "timestamp": "2025-12-24T22:42:20.743676+00:00", "meta": {"OBJECT_NAME": "STARLINK-35746", "OBJECT_ID": "2025-268AB", "EPOCH": "2025-12-24T03:56:11.351328", "MEAN_MOTION": 15.56343666, "ECCENTRICITY": 0.00045712, "INCLINATION": 42.9985, "RA_OF_ASC_NODE": 54.0602, "ARG_OF_PERICENTER": 212.5745, "MEAN_ANOMALY": 147.4836, "EPHEMERIS_TYPE": 0, "CLASSIFICATION_TYPE": "U", "NORAD_CAT_ID": 66582, "ELEMENT_SET_NO": 999, "REV_AT_EPOCH": 640, "BSTAR": 0.002197074, "MEAN_MOTION_DOT": 0.0016194, "MEAN_MOTION_DDOT": 0}, "tle": {"line1": "1 66582U 25268AB  25358.16402027  .00161940  00000+0  21971-2 0  9997", "line2": "2 66582  42.9985  54.0602 0004571 212.5745 147.4836 15.56343666  6404"}}, "geometry": {"type": "Point", "coordinates": [109.74344675118412, 38.98613885148018]}}, {"type": "Feature", "properties": {"norad_id": 66583, "name": "STARLINK-35941", "group": "last-30-days", "lat": 37.83389362398568, "lon": 105.90567910527666, "alt_km": 403.659118505323, "timestamp": "2025-12-24T22:42:20.743687+00:00", "meta": {"OBJECT_NAME": "STARLINK-35941", "OBJECT_ID": "2025-268AC", "EPOCH": "2025-12-24T08:00:03.000384", "MEAN_MOTION": 15.55513696, "ECCENTRICITY": 9.475e-05, "INCLINATION": 43.0004, "RA_OF_ASC_NODE": 53.0579, "ARG_OF_PERICENTER": 266.5165, "MEAN_ANOMALY": 325.5409, "EPHEMERIS_TYPE": 0, "CLASSIFICATION_TYPE": "U", "NORAD_CAT_ID": 66583, "ELEMENT_SET_NO": 999, "REV_AT_EPOCH": 611, "BSTAR": -0.033715191, "MEAN_MOTION_DOT": -0.02103635, "MEAN_MOTION_DDOT": 0}, "tle": {"line1": "1 66583U 25268AC  25358.33336806 -.02103635  00000+0 -33715-1 0  9997", "line2": "2 66583  43.0004  53.0579 0000947 266.5165 325.5409 15.55513696  6113"}}, "geometry": {"type": "Point", "coordinates": [105.90567910527666, 37.83389362398568]}}]}